COMMENT,ORIGINATOR,NORAD_CAT_ID,OBJECT_NAME,OBJECT_TYPE,CLASSIFICATION_TYPE,INTLDES,EPOCH,EPOCH_MICROSECONDS,MEAN_MOTION,ECCENTRICITY,INCLINATION,RA_OF_ASC_NODE,ARG_OF_PERICENTER,MEAN_ANOMALY,EPHEMERIS_TYPE,ELEMENT_SET_NO,REV_AT_EPOCH,BSTAR,MEAN_MOTION_DOT,MEAN_MOTION_DDOT,FILE,TLE_LINE0,TLE_LINE1,TLE_LINE2,OBJECT_ID,OBJECT_NUMBER,SEMIMAJOR_AXIS,PERIOD,APOGEE,PERIGEE,DECAYED,date
GENERATED VIA SPACETRACK.ORG API,18 SPCS,48884,SPACEBEE-101,PAYLOAD,U,21059F,2023/3/12 9:02,379584,15.24464955,0.0007887,97.581,206.2719,253.3395,106.6977,0,999,9459,0.0018837,0.00046472,0,3858743,0 SPACEBEE-101,1 48884U 21059F   23071.37698356  .00046472  00000-0  18837-2 0  9991,2 48884  97.5810 206.2719 0007887 253.3395 106.6977 15.24464955 94599,2021-059F,48884,6870.53,94.459,497.813,486.976,0,
GENERATED VIA SPACETRACK.ORG API,18 SPCS,48884,SPACEBEE-101,PAYLOAD,U,21059F,2023/3/12 21:39,211392,15.24508066,0.0007868,97.5811,206.8032,251.5139,108.5243,0,999,9467,0.0016341,0.00040323,0,3859148,0 SPACEBEE-101,1 48884U 21059F   23071.90208578  .00040323  00000-0  16341-2 0  9990,2 48884  97.5811 206.8032 0007868 251.5139 108.5243 15.24508066 94677,2021-059F,48884,6870.4,94.457,497.671,486.859,0,
GENERATED VIA SPACETRACK.ORG API,18 SPCS,48884,SPACEBEE-101,PAYLOAD,U,21059F,2023/3/12 21:39,211392,15.24508066,0.0007868,97.5811,206.8032,251.5139,108.5243,0,999,9467,0.0016341,0.00040323,0,3859425,0 SPACEBEE-101,1 48884U 21059F   23071.90208578  .00040323  00000-0  16341-2 0  9990,2 48884  97.5811 206.8032 0007868 251.5139 108.5243 15.24508066 94677,2021-059F,48884,6870.4,94.457,497.671,486.859,0,
GENERATED VIA SPACETRACK.ORG API,18 SPCS,48884,SPACEBEE-101,PAYLOAD,U,21059F,2023/3/14 3:34,214400,15.24605561,0.0007881,97.5807,208.0647,246.3796,113.6614,0,999,9486,0.0015939,0.00039439,0,3859756,0 SPACEBEE-101,1 48884U 21059F   23073.14914600  .00039439  00000-0  15939-2 0  9996,2 48884  97.5807 208.0647 0007881 246.3796 113.6614 15.24605561 94862,2021-059F,48884,6870.107,94.451,497.386,486.558,0,
GENERATED VIA SPACETRACK.ORG API,18 SPCS,48884,SPACEBEE-101,PAYLOAD,U,21059F,2023/3/14 14:36,401344,15.24642943,0.0007907,97.5803,208.53,244.7807,115.2611,0,999,9493,0.0017112,0.00042411,0,3860373,0 SPACEBEE-101,1 48884U 21059F   23073.60856946  .00042411  00000-0  17112-2 0  9994,2 48884  97.5803 208.5300 0007907 244.7807 115.2611 15.24642943 94931,2021-059F,48884,6869.995,94.448,497.292,486.428,0,
GENERATED VIA SPACETRACK.ORG API,18 SPCS,48884,SPACEBEE-101,PAYLOAD,U,21059F,2023/3/14 14:36,405664,15.24642777,0.000792,97.5804,208.5302,245.184,114.8574,0,999,9493,0.001723,0.00042706,0,3860643,0 SPACEBEE-101,1 48884U 21059F   23073.60856951  .00042706  00000-0  17230-2 0  9998,2 48884  97.5804 208.5302 0007920 245.1840 114.8574 15.24642777 94939,2021-059F,48884,6869.995,94.448,497.301,486.419,0,
GENERATED VIA SPACETRACK.ORG API,18 SPCS,48884,SPACEBEE-101,PAYLOAD,U,21059F,2023/3/15 7:55,808608,15.24709804,0.000796,97.5804,209.2611,243.4536,116.5886,0,999,9504,0.0018601,0.00046224,0,3861099,0 SPACEBEE-101,1 48884U 21059F   23074.33049547  .00046224  00000-0  18601-2 0  9996,2 48884  97.5804 209.2611 0007960 243.4536 116.5886 15.24709804 95040,2021-059F,48884,6869.794,94.444,497.127,486.191,0,
GENERATED VIA SPACETRACK.ORG API,18 SPCS,48884,SPACEBEE-101,PAYLOAD,U,21059F,2023/3/15 14:13,688160,15.24737693,0.0007972,97.5804,209.5268,242.5517,117.4909,0,999,9508,0.0020126,0.00050088,0,3861350,0 SPACEBEE-101,1 48884U 21059F   23074.59300565  .00050088  00000-0  20126-2 0  9992,2 48884  97.5804 209.5268 0007972 242.5517 117.4909 15.24737693 95080,2021-059F,48884,6869.71,94.442,497.052,486.099,0,
GENERATED VIA SPACETRACK.ORG API,18 SPCS,48884,SPACEBEE-101,PAYLOAD,U,21059F,2023/3/15 22:06,276544,15.24765129,0.0007955,97.5804,209.8591,241.7266,118.3168,0,999,9513,0.0017307,0.00043056,0,3861599,0 SPACEBEE-101,1 48884U 21059F   23074.92113746  .00043056  00000-0  17307-2 0  9996,2 48884  97.5804 209.8591 0007955 241.7266 118.3168 15.24765129 95133,2021-059F,48884,6869.628,94.441,496.958,486.028,0,
GENERATED VIA SPACETRACK.ORG API,18 SPCS,48884,SPACEBEE-101,PAYLOAD,U,21059F,2023/3/16 7:33,233344,15.24804561,0.000793,97.5804,210.2577,240.4237,119.621,0,999,9519,0.0018701,0.00046607,0,3862295,0 SPACEBEE-101,1 48884U 21059F   23075.31488696  .00046607  00000-0  18701-2 0  9993,2 48884  97.5804 210.2577 0007930 240.4237 119.6210 15.24804561 95192,2021-059F,48884,6869.509,94.438,496.822,485.927,0,
GENERATED VIA SPACETRACK.ORG API,18 SPCS,48884,SPACEBEE-101,PAYLOAD,U,21059F,2023/3/17 2:27,152832,15.24858266,0.0007906,97.5803,211.0547,237.1916,122.856,0,999,9531,0.0014241,0.00035478,0,3862708,0 SPACEBEE-101,1 48884U 21059F   23076.10236288  .00035478  00000-0  14241-2 0  9998,2 48884  97.5803 211.0547 0007906 237.1916 122.8560 15.24858266 95316,2021-059F,48884,6869.348,94.435,496.644,485.782,0,
GENERATED VIA SPACETRACK.ORG API,18 SPCS,48884,SPACEBEE-101,PAYLOAD,U,21059F,2023/3/17 8:45,921632,15.24874363,0.0007899,97.5804,211.3205,236.2647,123.7838,0,999,9535,0.0012658,0.00031524,0,3863278,0 SPACEBEE-101,1 48884U 21059F   23076.36484863  .00031524  00000-0  12658-2 0  9998,2 48884  97.5804 211.3205 0007899 236.2647 123.7838 15.24874363 95351,2021-059F,48884,6869.3,94.434,496.591,485.739,0,
GENERATED VIA SPACETRACK.ORG API,18 SPCS,48884,SPACEBEE-101,PAYLOAD,U,21059F,2023/3/17 21:21,651392,15.24912883,0.0007882,97.5804,211.852,234.362,125.6884,0,999,9543,0.0013638,0.00034021,0,3863544,0 SPACEBEE-101,1 48884U 21059F   23076.88981078  .00034021  00000-0  13638-2 0  9999,2 48884  97.5804 211.8520 0007882 234.3620 125.6884 15.24912883 95439,2021-059F,48884,6869.184,94.432,496.463,485.635,0,
GENERATED VIA SPACETRACK.ORG API,18 SPCS,48884,SPACEBEE-101,PAYLOAD,U,21059F,2023/3/18 8:22,989760,15.24941619,0.0007901,97.5805,212.3171,232.7555,127.2962,0,999,9550,0.0013425,0.00033515,0,3863963,0 SPACEBEE-101,1 48884U 21059F   23077.34914340  .00033515  00000-0  13425-2 0  9990,2 48884  97.5805 212.3171 0007901 232.7555 127.2962 15.24941619 95501,2021-059F,48884,6869.098,94.43,496.39,485.535,0,
GENERATED VIA SPACETRACK.ORG API,18 SPCS,48884,SPACEBEE-101,PAYLOAD,U,21059F,2023/3/18 20:58,823904,15.24974288,0.0007944,97.5807,212.8486,231.1625,128.8904,0,999,9558,0.001214,0.00030317,0,3864479,0 SPACEBEE-101,1 48884U 21059F   23077.87408361  .00030317  00000-0  12140-2 0  9999,2 48884  97.5807 212.8486 0007944 231.1625 128.8904 15.24974288 95584,2021-059F,48884,6869,94.428,496.321,485.408,0,
GENERATED VIA SPACETRACK.ORG API,18 SPCS,48884,SPACEBEE-101,PAYLOAD,U,21059F,2023/3/19 8:00,426496,15.25006668,0.0007947,97.581,213.3137,229.9975,130.0565,0,999,9565,0.0013099,0.0003276,0,3865049,0 SPACEBEE-101,1 48884U 21059F   23078.33339614  .00032760  00000-0  13099-2 0  9993,2 48884  97.5810 213.3137 0007947 229.9975 130.0565 15.25006668 95658,2021-059F,48884,6868.902,94.426,496.226,485.309,0,
GENERATED VIA SPACETRACK.ORG API,18 SPCS,48884,SPACEBEE-101,PAYLOAD,U,21059F,2023/3/19 20:35,219872,15.2504422,0.0007965,97.5813,213.8453,228.3989,131.6566,0,999,9573,0.0013176,0.00032991,0,3865138,0 SPACEBEE-101,1 48884U 21059F   23078.85831273  .00032991  00000-0  13176-2 0  9990,2 48884  97.5813 213.8453 0007965 228.3989 131.6566 15.25044220 95738,2021-059F,48884,6868.79,94.423,496.126,485.184,0,
GENERATED VIA SPACETRACK.ORG API,18 SPCS,48884,SPACEBEE-101,PAYLOAD,U,21059F,2023/3/19 20:35,219872,15.2504422,0.0007965,97.5813,213.8453,228.3989,131.6566,0,999,9573,0.0013176,0.00032991,0,3865354,0 SPACEBEE-101,1 48884U 21059F   23078.85831273  .00032991  00000-0  13176-2 0  9990,2 48884  97.5813 213.8453 0007965 228.3989 131.6566 15.25044220 95738,2021-059F,48884,6868.79,94.423,496.126,485.184,0,
GENERATED VIA SPACETRACK.ORG API,18 SPCS,48884,SPACEBEE-101,PAYLOAD,U,21059F,2023/3/20 7:37,995104,15.25078421,0.0007968,97.5815,214.3105,226.8617,133.1955,0,999,9580,0.001405,0.00035231,0,3865912,0 SPACEBEE-101,1 48884U 21059F   23079.31760411  .00035231  00000-0  14050-2 0  9999,2 48884  97.5815 214.3105 0007968 226.8617 133.1955 15.25078421 95801,2021-059F,48884,6868.687,94.421,496.025,485.079,0,
GENERATED VIA SPACETRACK.ORG API,18 SPCS,48884,SPACEBEE-101,PAYLOAD,U,21059F,2023/3/21 2:31,533472,15.25138542,0.0007968,97.5819,215.108,223.7069,136.3538,0,999,9592,0.0015248,0.00038326,0,3866231,0 SPACEBEE-101,1 48884U 21059F   23080.10493673  .00038326  00000-0  15248-2 0  9999,2 48884  97.5819 215.1080 0007968 223.7069 136.3538 15.25138542 95929,2021-059F,48884,6868.506,94.418,495.844,484.899,0,
GENERATED VIA SPACETRACK.ORG API,18 SPCS,48884,SPACEBEE-101,PAYLOAD,U,21059F,2023/3/21 8:49,118784,15.25157938,0.0007949,97.582,215.3739,222.7248,137.3372,0,999,9596,0.0014311,0.00035976,0,3866730,0 SPACEBEE-101,1 48884U 21059F   23080.36737406  .00035976  00000-0  14311-2 0  9990,2 48884  97.5820 215.3739 0007949 222.7248 137.3372 15.25157938 95962,2021-059F,48884,6868.448,94.416,495.773,484.853,0,
GENERATED VIA SPACETRACK.ORG API,18 SPCS,48884,SPACEBEE-101,PAYLOAD,U,21059F,2023/3/21 21:24,396032,15.25198108,0.0007948,97.5822,215.9055,220.8905,139.1737,0,999,9604,0.0014189,0.0003571,0,3866953,0 SPACEBEE-101,1 48884U 21059F   23080.89223838  .00035710  00000-0  14189-2 0  9996,2 48884  97.5822 215.9055 0007948 220.8905 139.1737 15.25198108 96048,2021-059F,48884,6868.328,94.414,495.652,484.734,0,
GENERATED VIA SPACETRACK.ORG API,18 SPCS,48884,SPACEBEE-101,PAYLOAD,U,21059F,2023/3/22 8:26,191680,15.2523305,0.000796,97.5822,216.3707,219.4978,140.568,0,999,9611,0.001491,0.00037577,0,3867403,0 SPACEBEE-101,1 48884U 21059F   23081.35148370  .00037577  00000-0  14910-2 0  9990,2 48884  97.5822 216.3707 0007960 219.4978 140.5680 15.25233050 96112,2021-059F,48884,6868.223,94.412,495.555,484.621,0,
